NORAD_CAT_ID,OBJECT_NAME,OBJECT_TYPE,EPOCH,MEAN_MOTION,ECCENTRICITY,INCLINATION,RA_OF_ASC_NODE,ARG_OF_PERICENTER,MEAN_ANOMALY,BSTAR,MEAN_MOTION_DOT,MEAN_MOTION_DDOT,TLE_LINE0,TLE_LINE1,TLE_LINE2,SEMIMAJOR_AXIS,PERIOD,APOGEE,PERIGEE,DECAYED
53555.0,STARLINK-4504,PAYLOAD,2022-09-11 22:00:00,15.73203605,0.00018,53.2171,40.2729,35.4985,110.0152,1.3723e-05,1.306e-05,0.0,0 STARLINK-4504,1 53555U 22101AE  22254.91667824  .00001306  00000-0  13723-4 0  9997,2 53555  53.2171  40.2729 0001800  35.4985 110.0152 15.73203605  1307,6727.885,91.533,350.961,348.539,0.0
53555.0,STARLINK-4504,PAYLOAD,2022-09-12 04:00:00,15.73192982,0.0001823,53.2164,39.0378,29.8212,92.5126,4.6738e-05,5.942e-05,0.0,0 STARLINK-4504,1 53555U 22101AE  22255.16667824  .00005942  00000-0  46738-4 0  9997,2 53555  53.2164  39.0378 0001823  29.8212  92.5126 15.73192982  3706,6727.915,91.534,351.00699999999995,348.55400000000014,0.0
53555.0,STARLINK-4504,PAYLOAD,2022-09-12 12:00:00,15.73181732,0.0001974,53.2166,37.3885,34.1887,177.0639,0.00027512,0.00038137,0.0,0 STARLINK-4504,1 53555U 22101AE  22255.50001157  .00038137  00000-0  27512-3 0  9996,2 53555  53.2166  37.3885 0001974  34.1887 177.0639 15.73181732  1309,6727.946999999999,91.534,351.14,348.4840000000001,0.0
53555.0,STARLINK-4504,PAYLOAD,2022-09-12 22:00:00,15.732500699999996,0.0002191999999999,53.2159,35.328,26.6412,25.7589,-0.00014204,-0.00020552,0.0,0 STARLINK-4504,1 53555U 22101AE  22255.91667824 -.00020552  00000-0 -14204-3 0  9998,2 53555  53.2159  35.3280 0002192  26.6412  25.7589 15.73250070  1306,6727.752,91.53,351.092,348.14300000000014,0.0
53555.0,STARLINK-4504,PAYLOAD,2022-09-13 06:00:00,15.73180712,0.0001810999999999,53.216,33.6766,22.3823,119.014,0.00028815,0.0003998,0.0,0 STARLINK-4504,1 53555U 22101AE  22256.25001157  .00039980  00000-0  28815-3 0  9993,2 53555  53.2160  33.6766 0001811  22.3823 119.0140 15.73180712  3873,6727.95,91.534,351.034,348.597,0.0
53555.0,STARLINK-4504,PAYLOAD,2022-09-13 14:00:01,15.73247012,0.0001995,53.2163,32.0286,20.57,209.7404,-0.00040034,-0.00056547,0.0,0 STARLINK-4504,1 53555U 22101AE  22256.58334491 -.00056547  00000-0 -40034-3 0  9996,2 53555  53.2163  32.0286 0001995  20.5700 209.7404 15.73247012  1306,6727.761,91.53,350.968,348.284,0.0
53555.0,STARLINK-4504,PAYLOAD,2022-09-13 20:00:01,15.73197926,0.00022,53.2164,30.7915,19.415,187.6289,-5.8874e-05,-8.875e-05,0.0,0 STARLINK-4504,1 53555U 22101AE  22256.83334491 -.00008875  00000-0 -58874-4 0  9997,2 53555  53.2164  30.7915 0002200  19.4150 187.6289 15.73197926  3964,6727.901,91.533,351.246,348.286,0.0
53555.0,STARLINK-4504,PAYLOAD,2022-09-13 22:00:00,15.73261232,0.0002204,53.2162,30.3784,17.8138,301.4472,-0.0012655,-0.00175065,0.0,0 STARLINK-4504,1 53555U 22101AE  22256.91667824 -.00175065  00000-0 -12655-2 0  9996,2 53555  53.2162  30.3784 0002204  17.8138 301.4472 15.73261232  1302,6727.721,91.53,351.0680000000001,348.103,0.0
53555.0,STARLINK-4504,PAYLOAD,2022-09-14 04:00:00,15.73136387,0.0002023,53.2168,29.141,17.8026,278.1166,0.00067528,0.00094972,0.0,0 STARLINK-4504,1 53555U 22101AE  22257.16667824  .00094972  00000-0  67528-3 0  9999,2 53555  53.2168  29.1410 0002023  17.8026 278.1166 15.73136387  4018,6728.0769999999975,91.537,351.30300000000005,348.58,0.0
53555.0,STARLINK-4504,PAYLOAD,2022-09-14 14:00:01,15.73249031,0.0002231999999999,53.2168,27.0801,17.0752,119.9571,-0.0002773,-0.00039443,0.0,0 STARLINK-4504,1 53555U 22101AE  22257.58334491 -.00039443  00000-0 -27730-3 0  9991,2 53555  53.2168  27.0801 0002232  17.0752 119.9571 15.73249031  1301,6727.755,91.53,351.122,348.119,0.0
53555.0,STARLINK-4504,PAYLOAD,2022-09-14 20:00:01,15.73201081,0.0002166999999999,53.2174,25.839,21.2429,92.4467,4.8826e-05,6.237e-05,0.0,0 STARLINK-4504,1 53555U 22101AE  22257.83334491  .00006237  00000-0  48826-4 0  9992,2 53555  53.2174  25.8390 0002167  21.2429  92.4467 15.73201081  4127,6727.892,91.533,351.215,348.2990000000001,0.0
53555.0,STARLINK-4504,PAYLOAD,2022-09-14 22:00:00,15.73232542,0.0002356999999999,53.2162,25.431,14.5627,211.4793,-0.00039483,-0.00055752,0.0,0 STARLINK-4504,1 53555U 22101AE  22257.91667824 -.00055752  00000-0 -39483-3 0  9996,2 53555  53.2162  25.4310 0002357  14.5627 211.4793 15.73232542  1306,6727.802,91.531,351.25300000000016,348.082,0.0
53555.0,STARLINK-4504,PAYLOAD,2022-09-15 04:00:00,15.73182643,0.0002230999999999,53.2164,24.1923,19.2829,183.4806,2.9091e-05,3.46e-05,0.0,0 STARLINK-4504,1 53555U 22101AE  22258.16667824  .00003460  00000-0  29091-4 0  9996,2 53555  53.2164  24.1923 0002231  19.2829 183.4806 15.73182643  4178,6727.945,91.534,351.311,348.309,0.0
53555.0,STARLINK-4504,PAYLOAD,2022-09-15 14:00:01,15.73188232,0.0002484,53.2164,22.132,23.1625,20.7547,0.00029989,0.00041658,0.0,0 STARLINK-4504,1 53555U 22101AE  22258.58334491  .00041658  00000-0  29989-3 0  9999,2 53555  53.2164  22.1320 0002484  23.1625  20.7547 15.73188232  1302,6727.929,91.534,351.465,348.12300000000016,0.0
53555.0,STARLINK-4504,PAYLOAD,2022-09-15 22:00:00,15.73257561,0.0002561,53.2165,20.4826,18.5147,114.326,-0.00045747,-0.00064504,0.0,0 STARLINK-4504,1 53555U 22101AE  22258.91667824 -.00064504  00000-0 -45747-3 0  9992,2 53555  53.2165  20.4826 0002561  18.5147 114.3260 15.73257561  4293,6727.731,91.53,351.319,347.87300000000016,0.0
53555.0,STARLINK-4504,PAYLOAD,2022-09-16 14:00:01,15.73153029,0.000268,53.2167,17.1834,18.8941,291.8122,-7.0626e-05,-0.00010503,0.0,0 STARLINK-4504,1 53555U 22101AE  22259.58334491 -.00010503  00000-0 -70626-4 0  9992,2 53555  53.2167  17.1834 0002680  18.8941 291.8122 15.73153029  1305,6728.029,91.536,351.69699999999995,348.091,0.0
53555.0,STARLINK-4504,PAYLOAD,2022-09-16 22:00:00,15.73167702,0.0002778,53.2162,15.534,18.0414,21.5255,0.00024777,0.0003425,0.0,0 STARLINK-4504,1 53555U 22101AE  22259.91667824  .00034250  00000-0  24777-3 0  9996,2 53555  53.2162  15.5340 0002778  18.0414  21.5255 15.73167702  4456,6727.986999999999,91.535,351.721,347.983,0.0
53555.0,STARLINK-4504,PAYLOAD,2022-09-17 14:00:01,15.7317649,0.000278,53.2164,12.2354,16.0637,201.3443,0.0003086999999999,0.00042886,0.0,0 STARLINK-4504,1 53555U 22101AE  22260.58334491  .00042886  00000-0  30870-3 0  9997,2 53555  53.2164  12.2354 0002780  16.0637 201.3443 15.73176490  1307,6727.962,91.535,351.6980000000001,347.957,0.0
53555.0,STARLINK-4504,PAYLOAD,2022-09-17 22:00:00,15.73254334,0.0002858,53.2165,10.5855,15.9872,290.3292,-0.00052353,-0.00073645,0.0,0 STARLINK-4504,1 53555U 22101AE  22260.91667824 -.00073645  00000-0 -52353-3 0  9992,2 53555  53.2165  10.5855 0002858  15.9872 290.3292 15.73254334  4600,6727.74,91.53,351.528,347.682,0.0
53555.0,STARLINK-4504,PAYLOAD,2022-09-18 14:00:01,15.73264088,0.0003066,53.2168,7.2866,20.1023,104.1788,-0.00025073,-0.00035768,0.0,0 STARLINK-4504,1 53555U 22101AE  22261.58335648 -.00035768  00000-0 -25073-3 0  9995,2 53555  53.2168   7.2866 0003066  20.1023 104.1788 15.73264088  4717,6727.712,91.529,351.64,347.515,0.0
53555.0,STARLINK-4504,PAYLOAD,2022-09-18 22:00:00,15.73264462,0.0003006,53.2165,5.6365,15.4866,197.7169,-0.00067199,-0.00094169,0.0,0 STARLINK-4504,1 53555U 22101AE  22261.91667824 -.00094169  00000-0 -67199-3 0  9991,2 53555  53.2165   5.6365 0003006  15.4866 197.7169 15.73264462  1305,6727.7109999999975,91.529,351.599,347.55400000000014,0.0
53555.0,STARLINK-4504,PAYLOAD,2022-09-19 14:00:01,15.73178398,0.0003156,53.2166,2.3382,17.9819,13.1256,0.00035017,0.00048772,0.0,0 STARLINK-4504,1 53555U 22101AE  22262.58334491  .00048772  00000-0  35017-3 0  9997,2 53555  53.2166   2.3382 0003156  17.9819  13.1256 15.73178398  1300,6727.956999999999,91.534,351.945,347.6980000000001,0.0
53555.0,STARLINK-4504,PAYLOAD,2022-09-19 22:00:00,15.732499,0.0003135,53.2167,0.6879,15.2802,104.7373,-0.00063618,-0.00089183,0.0,0 STARLINK-4504,1 53555U 22101AE  22262.91667824 -.00089183  00000-0 -63618-3 0  9994,2 53555  53.2167   0.6879 0003135  15.2802 104.7373 15.73249900  4929,6727.753000000002,91.53,351.727,347.509,0.0
53555.0,STARLINK-4504,PAYLOAD,2022-09-20 06:00:00,15.73218067,0.0002956,53.2171,359.0369,14.6903,194.2776,-6.8811e-05,-0.00010278,0.0,0 STARLINK-4504,1 53555U 22101AE  22263.25001157 -.00010278  00000-0 -68811-4 0  9993,2 53555  53.2171 359.0369 0002956  14.6903 194.2776 15.73218067  4970,6727.844,91.532,351.69699999999995,347.72,0.0
53555.0,STARLINK-4504,PAYLOAD,2022-09-20 14:00:01,15.73172653,0.0003302,53.2171,357.3895,12.4578,285.4704,0.00038093,0.00053127,0.0,0 STARLINK-4504,1 53555U 22101AE  22263.58334491  .00053127  00000-0  38093-3 0  9995,2 53555  53.2171 357.3895 0003302  12.4578 285.4704 15.73172653  1303,6727.973000000001,91.535,352.06,347.617,0.0
53555.0,STARLINK-4504,PAYLOAD,2022-09-20 22:00:01,15.73157107,0.0003043999999999,53.2171,355.7334,12.9384,13.8881,0.00055703,0.00078153,0.0,0 STARLINK-4504,1 53555U 22101AE  22263.91668981  .00078153  00000-0  55703-3 0  9999,2 53555  53.2171 355.7334 0003044  12.9384  13.8881 15.73157107  1302,6728.017,91.536,351.93,347.834,0.0
53555.0,STARLINK-4504,PAYLOAD,2022-09-21 06:00:00,15.732224300000002,0.0003128,53.2171,354.0887,12.7102,103.0885,-0.00019677,-0.0002818,0.0,0 STARLINK-4504,1 53555U 22101AE  22264.25001157 -.00028180  00000-0 -19677-3 0  9990,2 53555  53.2171 354.0887 0003128  12.7102 103.0885 15.73222430  5139,6727.831,91.532,351.801,347.592,0.0
53555.0,STARLINK-4504,PAYLOAD,2022-09-21 22:00:00,15.732493,0.0003373,53.2171,350.7907,12.5137,281.1311,-0.00079143,-0.00110523,0.0,0 STARLINK-4504,1 53555U 22101AE  22264.91667824 -.00110523  00000-0 -79143-3 0  9999,2 53555  53.2171 350.7907 0003373  12.5137 281.1311 15.73249300  1305,6727.755,91.53,351.889,347.35,0.0
53555.0,STARLINK-4504,PAYLOAD,2022-09-22 06:00:00,15.73180091,0.00033,53.2174,349.1403,12.2869,10.2878,0.00017084,0.00023406,0.0,0 STARLINK-4504,1 53555U 22101AE  22265.25001157  .00023406  00000-0  17084-3 0  9995,2 53555  53.2174 349.1403 0003300  12.2869  10.2878 15.73180091  5281,6727.9519999999975,91.534,352.037,347.597,0.0
